{"type":"FeatureCollection","name":"IBI land \u2014 Natural Earth 1:50m","source":"Natural Earth 1:50m land, public domain","features":[{"type":"Feature","properties":{},"geometry":{"type":"MultiPolygon","coordinates":[[[[-18.043359374999994,27.768115234374996],[-17.924511718749983,27.850146484374996],[-17.887939453125,27.8095703125],[-17.984765624999994,27.646386718749994],[-18.106591796874994,27.707470703124997],[-18.135937499999983,27.727929687499994],[-18.160546874999994,27.761474609375],[-18.043359374999994,27.768115234374996]]],[[[-15.65576171875,27.7583984375],[-15.710302734374977,27.784082031249994],[-15.807324218749983,27.887548828125],[-15.809472656249994,27.994482421875],[-15.720947265625,28.064160156249997],[-15.682763671874994,28.154052734375],[-15.452783203124994,28.136914062499997],[-15.432714843749977,28.154248046874997],[-15.415478515624983,28.159326171874994],[-15.400585937499983,28.147363281249994],[-15.406689453124983,28.070507812499997],[-15.383154296874977,27.992822265624994],[-15.38916015625,27.874707031249997],[-15.436767578125,27.810693359374994],[-15.559374999999989,27.746972656249994],[-15.65576171875,27.7583984375]]],[[[-17.21435546875,28.199267578124996],[-17.129638671875,28.155957031249997],[-17.103759765625,28.111132812499996],[-17.10107421875,28.083447265624997],[-17.184667968749977,28.02197265625],[-17.22539062499999,28.013525390625],[-17.27392578125,28.038281249999997],[-17.324902343749983,28.11767578125],[-17.29033203124999,28.176318359374996],[-17.25859374999999,28.203173828124996],[-17.21435546875,28.199267578124996]]],[[[-16.86601562499999,28.293261718749996],[-16.90532226562499,28.339599609375],[-16.84306640624999,28.376123046874994],[-16.752050781249977,28.369824218749997],[-16.556835937499983,28.40048828125],[-16.517431640624977,28.4126953125],[-16.318994140624994,28.558203125],[-16.123632812499977,28.575976562499996],[-16.119140625,28.528271484374997],[-16.33447265625,28.379931640624996],[-16.418212890625,28.151416015624996],[-16.496240234374994,28.061914062499994],[-16.54277343749999,28.032080078125],[-16.65800781249999,28.007177734375],[-16.79472656249999,28.149169921875],[-16.86601562499999,28.293261718749996]]],[[[-14.152587890625,28.406640624999994],[-14.028369140624989,28.617431640625],[-14.003369140624983,28.706689453124994],[-13.954150390624989,28.741455078125],[-13.886279296874989,28.744677734374996],[-13.857226562499989,28.738037109375],[-13.8271484375,28.691210937499996],[-13.827587890624983,28.585156249999997],[-13.862988281249983,28.409326171874994],[-13.928027343749989,28.253466796874996],[-14.19677734375,28.169287109375],[-14.332617187499977,28.056005859375],[-14.468603515624977,28.082373046875],[-14.491796874999977,28.100927734375],[-14.355566406249977,28.129687499999996],[-14.231982421874989,28.2158203125],[-14.152587890625,28.406640624999994]]],[[[-17.744531249999994,28.786572265624997],[-17.7265625,28.724462890625],[-17.751611328124994,28.68857421875],[-17.744384765625,28.616015624999996],[-17.758007812499983,28.569091796875],[-17.83427734374999,28.493212890624996],[-17.859375,28.485693359375],[-17.88212890624999,28.564599609374994],[-18.00078124999999,28.758251953124997],[-17.928808593749977,28.844580078125],[-17.797558593749983,28.84677734375],[-17.744531249999994,28.786572265624997]]],[[[-13.535058593749994,29.144287109375],[-13.501416015624983,29.211230468749996],[-13.463574218749983,29.237207031249994],[-13.422949218749977,29.197509765625],[-13.453759765624994,29.1513671875],[-13.477929687499994,29.006591796875],[-13.5546875,28.960205078125],[-13.715966796874994,28.91123046875],[-13.783984374999989,28.845458984375],[-13.859912109374989,28.869091796874997],[-13.823632812499994,29.013330078124994],[-13.788183593749977,29.056103515624997],[-13.650097656249983,29.118994140625],[-13.535058593749994,29.144287109375]]],[[[-14.168359374999994,26.415429687499994],[-13.952099609374983,26.48876953125],[-13.695898437499977,26.642919921875],[-13.575781249999977,26.735107421875],[-13.495751953124994,26.87265625],[-13.409814453124994,27.146630859374994],[-13.256152343749989,27.434619140624996],[-13.175976562499983,27.655712890624997],[-13.040722656249983,27.769824218749996],[-12.948925781249983,27.91416015625],[-12.793652343749983,27.978417968749994],[-12.468896484374994,28.009423828124994],[-11.986083984375,28.129296874999994],[-11.552685546874983,28.310107421874996],[-11.43017578125,28.382031249999997],[-11.299072265625,28.526074218749997],[-11.080957031249994,28.713769531249994],[-10.673828125,28.939208984375],[-10.486474609374994,29.06494140625],[-10.200585937499994,29.38037109375],[-10.010498046875,29.641406249999996],[-9.852636718749977,29.809228515624994],[-9.743457031249989,29.958203124999997],[-9.667089843749977,30.109277343749994],[-9.623828124999989,30.35263671875],[-9.652929687499977,30.447558593749996],[-9.773144531249983,30.603125],[-9.853906249999994,30.644580078124996],[-9.87548828125,30.717919921874994],[-9.832421874999994,30.847265625],[-9.833349609374977,31.069628906249996],[-9.808691406249977,31.424609374999996],[-9.674951171874994,31.710986328124996],[-9.347460937499989,32.086376953125],[-9.286572265624983,32.240576171875],[-9.249121093749977,32.48583984375],[-9.245849609375,32.5724609375],[-8.836230468749989,32.920458984374996],[-8.596289062499977,33.187158203124994],[-8.512841796874994,33.25244140625],[-8.301171874999994,33.374365234375],[-7.562353515624977,33.640283203124994],[-7.144677734374994,33.830322265625],[-6.900976562499977,33.969042968749996],[-6.755761718749994,34.13291015625],[-6.353124999999977,34.77607421875],[-5.957568359374989,35.68115234375],[-5.9248046875,35.785791015624994],[-5.747949218749994,35.815966796874996],[-5.622851562499989,35.828906249999996],[-5.522265624999989,35.86201171875],[-5.397363281249994,35.9298828125],[-5.27783203125,35.902734374999994],[-5.337646484375,35.85654296875],[-5.337646484375,35.74521484375],[-5.252685546875,35.61474609375],[-5.105371093749994,35.4677734375],[-4.837207031249989,35.281298828124996],[-4.628320312499994,35.206396484375],[-4.329980468749994,35.161474609375],[-3.982421875,35.243408203125],[-3.7879882812499943,35.244921874999996],[-3.6932617187499943,35.27998046875],[-3.5906249999999886,35.228320312499996],[-3.394726562499983,35.211816406249994],[-3.206005859374983,35.239111328125],[-3.0630859374999773,35.317236328125],[-2.9722167968749886,35.407275390624996],[-2.957958984374983,35.363085937499996],[-2.95361328125,35.31513671875],[-2.925976562499983,35.287109375],[-2.8695312499999943,35.172656249999996],[-2.8399414062499773,35.127832031249994],[-2.731396484374983,35.135205078125],[-2.6368164062499773,35.112695312499994],[-2.4237304687499943,35.123486328125],[-2.017773437499983,35.08505859375],[-1.913281249999983,35.09423828125],[-1.6736328124999886,35.18310546875],[-1.4837402343749773,35.303076171875],[-1.3358398437499943,35.3642578125],[-1.2053710937499886,35.495751953124994],[-1.0876953124999886,35.578857421875],[-0.91748046875,35.668408203125],[-0.42612304687497726,35.8615234375],[-0.35078124999998295,35.863183593749994],[-0.18916015624998295,35.819091796875],[-0.048242187499994316,35.832812499999996],[0.047949218750005684,35.900537109374994],[0.15166015625001705,36.063134765624994],[0.31220703125001137,36.162353515625],[0.514941406250017,36.26181640625],[0.790820312500017,36.35654296875],[0.9716796875,36.4439453125],[1.2572265625000227,36.519580078124996],[1.9745117187500227,36.567578125],[2.3428710937500057,36.610302734375],[2.5933593750000057,36.60068359375],[2.846484375000017,36.7388671875],[2.9728515625000114,36.784472656249996],[3.5205078125,36.7951171875],[3.7790039062500114,36.89619140625],[4.758105468750017,36.896337890625],[4.877832031250023,36.86240234375],[4.995410156250017,36.808056640625],[5.195605468750017,36.676806640624996],[5.25,36.661238734176244],[5.25,25.75],[-14.625802757408858,25.75],[-14.602294921875,25.808544921874997],[-14.522753906249989,25.925244140624997],[-14.470556640624977,26.163037109374997],[-14.413867187499989,26.253710937499996],[-14.312451171874983,26.296728515625],[-14.168359374999994,26.415429687499994]]],[[[-16.83740234375,32.648291015625],[-17.018261718749983,32.66279296875],[-17.17119140624999,32.721875],[-17.226025390624983,32.766845703125],[-17.24101562499999,32.807373046875],[-17.190869140624983,32.868603515625],[-17.05449218749999,32.815869140625],[-16.92919921875,32.84140625],[-16.77397460937499,32.77353515625],[-16.693261718749994,32.7580078125],[-16.765283203124994,32.709716796875],[-16.83740234375,32.648291015625]]],[[[-6.698828124999977,55.19345703125],[-6.475048828124983,55.241015624999996],[-6.375292968749989,55.241796875],[-6.234228515624977,55.216845703124996],[-6.129150390625,55.2173828125],[-6.035791015624994,55.14453125],[-5.985742187499994,55.0296875],[-5.869189453124989,54.9162109375],[-5.716845703124989,54.81748046875],[-5.710742187499989,54.757080078125],[-5.765185546874989,54.724658203124996],[-5.879101562499983,54.684374999999996],[-5.878613281249983,54.64130859375],[-5.803466796875,54.663037109375],[-5.738623046874977,54.673046875],[-5.58251953125,54.663427734375],[-5.527929687499977,54.61962890625],[-5.490185546874983,54.554052734375],[-5.470410156249983,54.5001953125],[-5.48388671875,54.441650390625],[-5.52587890625,54.460205078125],[-5.568554687499983,54.51259765625],[-5.615966796875,54.53671875],[-5.671093749999983,54.549755859375],[-5.646093749999977,54.477880859375],[-5.655957031249983,54.38173828125],[-5.631884765624989,54.37265625],[-5.557812499999983,54.37099609375],[-5.606787109374977,54.27255859375],[-5.708056640624989,54.245849609375],[-5.826171875,54.23583984375],[-5.854638671874994,54.200976562499996],[-5.876074218749977,54.156054687499996],[-5.937744140625,54.0890625],[-6.01904296875,54.05126953125],[-6.119531249999994,54.058886718749996],[-6.218017578125,54.088720703125],[-6.175732421874983,54.053515624999996],[-6.156933593749983,54.017236328125],[-6.230664062499983,54.00361328125],[-6.3076171875,54.011035156249996],[-6.345166015624983,53.98720703125],[-6.347607421874983,53.94130859375],[-6.321582031249989,53.882177734375],[-6.270117187499977,53.840234375],[-6.22900390625,53.745703125],[-6.194873046874989,53.640869140625],[-6.141845703125,53.5775390625],[-6.130957031249977,53.49892578125],[-6.138769531249977,53.460302734375],[-6.129101562499983,53.390869140625],[-6.151660156249989,53.36640625],[-6.134716796874983,53.301220703125],[-6.072265625,53.166308593749996],[-6.045019531249977,53.091162109375],[-6.027392578124989,52.927099609375],[-6.071484374999983,52.865625],[-6.130664062499989,52.807275390625],[-6.169335937499994,52.738134765625],[-6.19921875,52.6634765625],[-6.217236328124983,52.543115234375],[-6.345410156249983,52.402001953125],[-6.399951171874989,52.366943359375],[-6.463183593749989,52.345361328125],[-6.324999999999989,52.2466796875],[-6.437939453124983,52.202685546874996],[-6.561083984374989,52.188818359375],[-6.697314453124989,52.213525390625],[-6.7822265625,52.210498046874996],[-6.859716796874977,52.178564453125],[-6.890234374999977,52.159228515624996],[-6.914648437499977,52.1685546875],[-6.965771484374983,52.24951171875],[-7.003271484374977,52.16591796875],[-7.081787109375,52.139306640625],[-7.216210937499994,52.144970703125],[-7.440869140624983,52.122705078125],[-7.527294921874983,52.098876953125],[-7.563183593749983,52.06162109375],[-7.58984375,52.0185546875],[-7.624902343749994,51.993115234375],[-7.66455078125,51.979736328125],[-7.837988281249977,51.947998046875],[-7.872167968749977,51.935302734375],[-7.952490234374977,51.865771484374996],[-8.057812499999983,51.8255859375],[-8.14501953125,51.813525390624996],[-8.222460937499989,51.85400390625],[-8.254296874999994,51.8783203125],[-8.290234374999983,51.890673828124996],[-8.4091796875,51.88876953125],[-8.371630859374989,51.876269531249996],[-8.347363281249983,51.847705078124996],[-8.335595703124994,51.79296875],[-8.34912109375,51.739306640624996],[-8.407812499999977,51.712060546875],[-8.477832031249989,51.70703125],[-8.588281249999994,51.6513671875],[-8.734472656249977,51.636181640625],[-8.813427734374983,51.584912109375],[-9.296484374999977,51.4982421875],[-9.323876953124994,51.497216796874994],[-9.390576171874983,51.519287109375],[-9.462890625,51.529052734375],[-9.534863281249983,51.52216796875],[-9.7373046875,51.47373046875],[-9.835351562499994,51.483349609375],[-9.710351562499994,51.6037109375],[-9.542382812499994,51.664453125],[-9.52490234375,51.681103515625],[-9.579833984375,51.689257812499996],[-9.899023437499977,51.6470703125],[-10.009912109374994,51.611132812499996],[-10.120751953124994,51.60068359375],[-10.069433593749977,51.655566406249996],[-9.926416015624994,51.730712890625],[-9.849707031249977,51.76611328125],[-9.802880859374994,51.780126953125],[-9.74951171875,51.824267578124996],[-9.598828124999983,51.8744140625],[-10.084228515625,51.77099609375],[-10.211718749999989,51.78359375],[-10.241748046874989,51.812451171875],[-10.341064453125,51.79892578125],[-10.378710937499989,51.86875],[-10.231591796874994,51.97451171875],[-10.145849609374977,52.02001953125],[-10.044042968749977,52.044580078125],[-9.946044921875,52.079833984375],[-9.90966796875,52.12294921875],[-9.955810546875,52.136669921875],[-10.24951171875,52.125732421875],[-10.390234374999977,52.134912109375],[-10.382617187499989,52.169091796875],[-10.356689453125,52.20693359375],[-10.2109375,52.2716796875],[-10.132080078125,52.282080078125],[-10.061767578125,52.275927734374996],[-9.993115234374983,52.259326171874996],[-9.937304687499989,52.237646484375],[-9.772119140624994,52.25009765625],[-9.841064453125,52.291455078125],[-9.853222656249983,52.37548828125],[-9.906054687499989,52.4037109375],[-9.838476562499977,52.442675781249996],[-9.761132812499994,52.466357421874996],[-9.632226562499994,52.546923828124996],[-9.586328124999994,52.5591796875],[-9.331249999999983,52.578759765625],[-9.05615234375,52.621142578124996],[-8.783447265625,52.679638671875],[-8.923291015624983,52.7123046875],[-8.990283203124989,52.755419921874996],[-9.097900390625,52.668261718749996],[-9.175390624999977,52.634912109375],[-9.394238281249983,52.61708984375],[-9.463476562499977,52.626904296875],[-9.56103515625,52.653955078125],[-9.591357421874989,52.64365234375],[-9.619531249999994,52.62275390625],[-9.764355468749983,52.57998046875],[-9.916601562499977,52.5697265625],[-9.739599609374977,52.648193359375],[-9.514990234374977,52.78115234375],[-9.464892578124989,52.823193359375],[-9.393652343749977,52.896240234375],[-9.415722656249983,52.928759765624996],[-9.461962890624989,52.947265625],[-9.299218749999994,53.09755859375],[-9.241894531249983,53.124853515625],[-9.137597656249994,53.129248046875],[-9.061132812499977,53.153076171875],[-9.027441406249977,53.153173828125],[-8.997167968749977,53.162060546875],[-8.930126953124983,53.207080078124996],[-9.033544921874977,53.2357421875],[-9.140332031249983,53.25048828125],[-9.470751953124989,53.23486328125],[-9.514208984374989,53.238232421875],[-9.55517578125,53.25205078125],[-9.581738281249983,53.27197265625],[-9.601757812499983,53.323046874999996],[-9.6259765625,53.33447265625],[-9.700585937499994,53.33447265625],[-9.774072265624994,53.31884765625],[-9.825390624999983,53.320361328124996],[-9.875781249999989,53.342724609375],[-9.79541015625,53.394970703125],[-9.899023437499977,53.407275390624996],[-10.00390625,53.397021484374996],[-10.091259765624983,53.412841796875],[-10.093994140625,53.445605468749996],[-10.054394531249983,53.478320312499996],[-10.106249999999989,53.509326171874996],[-10.116992187499989,53.54853515625],[-10.061718749999983,53.567822265625],[-10.001367187499994,53.56142578125],[-9.878271484374977,53.5904296875],[-9.720654296874983,53.6044921875],[-9.855859374999994,53.633105468749996],[-9.909716796874989,53.6576171875],[-9.912304687499983,53.695117187499996],[-9.901611328125,53.727197265625],[-9.745068359374983,53.781494140625],[-9.578222656249977,53.805419921875],[-9.590527343749983,53.841162109375],[-9.578857421875,53.879833984375],[-9.747509765624983,53.891015625],[-9.9140625,53.863720703125],[-9.896240234375,53.93759765625],[-9.856347656249994,54.004296875],[-9.848486328124977,54.048291015625],[-9.8564453125,54.095361328125],[-9.934472656249994,54.075244140624996],[-9.943603515625,54.1416015625],[-9.977099609374989,54.187109375],[-10.092675781249994,54.15576171875],[-10.089697265624977,54.2158203125],[-10.056396484375,54.2578125],[-9.995947265624977,54.276025390625],[-9.935937499999994,54.268115234374996],[-9.824560546874977,54.268896484375],[-9.717138671874977,54.300439453125],[-9.562304687499989,54.308544921875],[-9.315527343749977,54.298632812499996],[-9.145898437499994,54.209619140625],[-9.102099609374989,54.225537109375],[-9.034277343749977,54.281787109374996],[-9.00244140625,54.28798828125],[-8.746777343749983,54.263476562499996],[-8.588037109374994,54.231103515625],[-8.545556640624994,54.2412109375],[-8.568457031249977,54.30361328125],[-8.623144531249977,54.346875],[-8.554443359375,54.403564453125],[-8.470996093749989,54.441943359374996],[-8.415234374999983,54.461083984375],[-8.286523437499994,54.48486328125],[-8.230371093749994,54.507275390625],[-8.192968749999977,54.580126953124996],[-8.133447265624994,54.6408203125],[-8.45654296875,54.60927734375],[-8.763916015625,54.681201171874996],[-8.715185546874977,54.73203125],[-8.650292968749994,54.760888671875],[-8.538281249999983,54.782958984375],[-8.527685546874977,54.80947265625],[-8.470996093749989,54.83154296875],[-8.377294921874977,54.889453124999996],[-8.411718749999977,54.965087890625],[-8.393261718749983,55.02041015625],[-8.325781249999977,55.056445312499996],[-8.3046875,55.108203124999996],[-8.274609374999983,55.146289062499996],[-8.1376953125,55.159912109375],[-8.006103515625,55.1953125],[-7.958593749999977,55.19189453125],[-7.803173828124983,55.200048828125],[-7.750537109374989,55.185791015625],[-7.762548828124977,55.248339843749996],[-7.667089843749977,55.256494140625],[-7.629785156249994,55.243994140625],[-7.613378906249977,55.199658203125],[-7.570019531249983,55.17138671875],[-7.556640625,55.122216796875],[-7.585693359375,55.084228515625],[-7.63427734375,55.054980468749996],[-7.58984375,55.025048828125],[-7.658740234374989,54.970947265625],[-7.584374999999994,54.993994140625],[-7.478417968749994,55.04697265625],[-7.483935546874989,55.090283203125],[-7.501953125,55.1447265625],[-7.531445312499983,55.19384765625],[-7.517871093749989,55.24794921875],[-7.458300781249989,55.281787109374996],[-7.3017578125,55.298779296875],[-7.365966796875,55.360205078125],[-7.308789062499983,55.3658203125],[-7.246679687499977,55.35302734375],[-7.155322265624989,55.30517578125],[-7.060253906249983,55.267626953124996],[-6.961669921875,55.237890625],[-7.056396484375,55.1783203125],[-7.1728515625,55.137011718749996],[-7.218652343749994,55.0919921875],[-7.178613281249994,55.056884765625],[-7.100634765624989,55.048291015625],[-7.03076171875,55.080615234374996],[-6.947167968749994,55.18251953125],[-6.888964843749989,55.188916015625],[-6.824853515624994,55.1806640625],[-6.698828124999977,55.19345703125]]],[[[-10.139843749999983,54.0052734375],[-9.996337890625,54.003369140625],[-9.956152343749977,53.987353515624996],[-9.948144531249994,53.913378906249996],[-9.952539062499994,53.884619140625],[-10.026513671874994,53.9203125],[-10.062304687499989,53.959765624999996],[-10.265820312499983,53.977734375],[-10.18115234375,54.0169921875],[-10.139843749999983,54.0052734375]]],[[[-4.69873046875,54.224902343749996],[-4.614843749999977,54.266943359375],[-4.508642578124977,54.376708984375],[-4.424707031249994,54.407177734375],[-4.395556640624989,54.4029296875],[-4.377197265625,54.392578125],[-4.337988281249977,54.269091796874996],[-4.392285156249983,54.225390624999996],[-4.412060546874983,54.185351562499996],[-4.6142578125,54.05869140625],[-4.696093749999989,54.0814453125],[-4.765771484374994,54.06943359375],[-4.785351562499983,54.073046874999996],[-4.745556640624983,54.118798828125],[-4.69873046875,54.224902343749996]]],[[[-5.370800781249983,55.666943359375],[-5.318115234375,55.7091796875],[-5.251611328124994,55.716943359375],[-5.185449218749994,55.690966796874996],[-5.160400390625,55.666796874999996],[-5.10498046875,55.573974609375],[-5.0947265625,55.4943359375],[-5.105419921874983,55.448828125],[-5.231494140624989,55.448095703125],[-5.277050781249983,55.45673828125],[-5.331494140624983,55.4810546875],[-5.392675781249977,55.618359375],[-5.370800781249983,55.666943359375]]],[[[-6.305078124999994,55.60693359375],[-6.307226562499977,55.619140625],[-6.27001953125,55.6703125],[-6.302050781249989,55.728369140625],[-6.286425781249989,55.772509765624996],[-6.3017578125,55.780615234375],[-6.333886718749994,55.774365234375],[-6.451953124999989,55.704248046875],[-6.491357421874994,55.697314453124996],[-6.495654296874989,55.711572265625],[-6.466455078124994,55.768994140625],[-6.462841796874983,55.808251953125],[-6.445263671874983,55.832373046875],[-6.374951171874983,55.871337890625],[-6.344140624999994,55.87373046875],[-6.311279296875,55.856494140624996],[-6.215673828124977,55.904589843749996],[-6.12890625,55.93056640625],[-6.092822265624989,55.8021484375],[-6.0576171875,55.722509765625],[-6.055322265624994,55.6953125],[-6.08837890625,55.657519531249996],[-6.253173828125,55.607226562499996],[-6.305078124999994,55.60693359375]]],[[[-6.041308593749989,55.925634765625],[-5.911767578124994,55.974755859375],[-5.970312499999977,55.9921875],[-5.97265625,56.004443359374996],[-5.939062499999977,56.045263671875],[-5.799609374999989,56.1087890625],[-5.762255859374989,56.1203125],[-5.725146484374989,56.1185546875],[-5.797216796874977,56.005615234375],[-5.970068359374977,55.81455078125],[-5.990917968749983,55.80380859375],[-6.041552734374989,55.806787109375],[-6.060351562499989,55.822900390625],[-6.070703124999994,55.84765625],[-6.071972656249983,55.893115234374996],[-6.041308593749989,55.925634765625]]],[[[1.4019531250000057,38.71142578125],[1.436328125000017,38.768212890624994],[1.496875000000017,38.7119140625],[1.5926757812500227,38.701464843749996],[1.5939453125000114,38.6720703125],[1.5711914062500227,38.658837890624994],[1.5049804687500057,38.67099609375],[1.40576171875,38.67099609375],[1.4019531250000057,38.71142578125]]],[[[1.302539062500017,39.031152343749994],[1.3486328125,39.080810546875],[1.564453125,39.121044921875],[1.6131835937500227,39.08740234375],[1.6236328125000057,39.038818359375],[1.4945312500000227,38.932519531249994],[1.4452148437500227,38.918701171875],[1.408984375000017,38.857275390625],[1.2569335937500057,38.87900390625],[1.2233398437500114,38.903857421874996],[1.2562500000000227,38.973388671875],[1.2998046875,38.981738281249996],[1.302539062500017,39.031152343749994]]],[[[3.4146484375000057,39.6271484375],[3.3487304687500057,39.5556640625],[3.29296875,39.47705078125],[3.2447265625000057,39.386621093749994],[3.154589843750017,39.333251953125],[3.0728515625000057,39.30126953125],[2.9000976562500114,39.368359375],[2.7998046875,39.385058593749996],[2.769824218750017,39.41025390625],[2.7459960937500227,39.51025390625],[2.7005859375000227,39.542138671874994],[2.634082031250017,39.556201171874996],[2.5758789062500114,39.530664062499994],[2.49951171875,39.477880859375],[2.458789062500017,39.53046875],[2.394335937500017,39.540380859375],[2.3700195312500227,39.572070312499996],[2.3712890625000114,39.613085937499996],[2.784960937500017,39.854833984375],[2.90478515625,39.90830078125],[3.15869140625,39.970507812499996],[3.197558593750017,39.961083984374994],[3.1644531250000227,39.924218749999994],[3.1669921875,39.90771484375],[3.1986328125000227,39.88984375],[3.19091796875,39.861376953124996],[3.15869140625,39.836572265624994],[3.145312500000017,39.790087890624996],[3.2411132812500227,39.756689453125],[3.3421875000000227,39.78671875],[3.4489257812500114,39.76123046875],[3.4618164062500227,39.69775390625],[3.4146484375000057,39.6271484375]]],[[[3.8534179687500227,40.063037109374996],[4.059179687500006,40.075097656249994],[4.225781250000011,40.032373046874994],[4.315136718750011,39.917236328125],[4.322070312500017,39.897509765624996],[4.293652343750011,39.841845703124996],[4.275292968750023,39.8302734375],[3.9676757812500227,39.945849609374996],[3.8671875,39.958740234375],[3.8426757812500227,39.976367187499996],[3.8454101562500114,40.036474609375],[3.8534179687500227,40.063037109374996]]],[[[4.975976562500023,43.426953125],[4.911914062500017,43.426953125],[4.843554687500017,43.393945312499994],[4.807910156250017,43.405224609375],[4.787207031250006,43.401416015624996],[4.7890625,43.37890625],[4.712109375000011,43.373291015625],[4.628710937500017,43.387109374999994],[4.376171875000011,43.456396484375],[4.224218750000006,43.479638671874994],[4.162792968750011,43.503662109375],[4.113085937500017,43.563037109374996],[4.052636718750023,43.593066406249996],[3.9108398437500114,43.5630859375],[3.861621093750017,43.516357421875],[3.7847656250000057,43.46162109375],[3.2588867187500057,43.193212890625],[3.162890625000017,43.08076171875],[3.0517578125,42.91513671875],[3.0430664062500057,42.837890625],[3.0909179687500057,42.590869140624996],[3.1978515625000057,42.461181640625],[3.2398437500000057,42.36787109375],[3.287890625000017,42.343701171875],[3.3067382812500057,42.288964843749994],[3.2186523437500227,42.2603515625],[3.1664062500000227,42.256494140624994],[3.150390625,42.162451171875],[3.1751953125000227,42.135986328125],[3.224609375,42.111132812499996],[3.238085937500017,42.0822265625],[3.248046875,41.944238281249994],[3.1468750000000227,41.86103515625],[3.0048828125,41.767431640625],[2.3109375000000227,41.46650390625],[2.1456054687500057,41.320751953125],[2.0826171875000057,41.287402343749996],[1.5666015625000114,41.195605468749996],[1.205859375000017,41.097558593749994],[1.0329101562500114,41.062060546874996],[0.81689453125,40.8916015625],[0.714648437500017,40.8228515625],[0.7960937500000114,40.80380859375],[0.89111328125,40.72236328125],[0.859179687500017,40.68623046875],[0.7206054687500227,40.63046875],[0.6600585937500227,40.613330078124996],[0.6271484375000114,40.622216796874994],[0.5960937500000227,40.614501953125],[0.36367187500002274,40.31904296875],[0.15839843750001137,40.106591796874994],[0.043066406250005684,40.013964843749996],[-0.07514648437498295,39.875927734375],[-0.32700195312497726,39.519873046875],[-0.32895507812497726,39.41708984375],[-0.20493164062497726,39.06259765625],[-0.1337890625,38.969482421875],[-0.03413085937498295,38.8912109375],[0.15488281250000568,38.824658203125],[0.20156250000002274,38.759179687499994],[0.13632812500000568,38.69677734375],[-0.052734375,38.585693359375],[-0.3812499999999943,38.43564453125],[-0.5208007812499886,38.317285156249994],[-0.5506835937499943,38.203125],[-0.6467773437499886,38.15185546875],[-0.6832031249999773,37.992041015625],[-0.7415527343749773,37.886132812499994],[-0.7527343749999886,37.850244140624994],[-0.814648437499983,37.769921874999994],[-0.8230957031249773,37.71162109375],[-0.7215820312499943,37.6310546875],[-0.7718749999999943,37.596240234374996],[-0.8221679687499943,37.58076171875],[-0.9380859374999773,37.571337890624996],[-1.3275390624999943,37.5611328125],[-1.6409667968749773,37.386962890625],[-1.797607421875,37.232861328125],[-1.9393066406249773,36.945849609374996],[-2.111523437499983,36.776660156249996],[-2.187695312499983,36.745458984375],[-2.3055664062499943,36.81982421875],[-2.452832031249983,36.83115234375],[-2.595703125,36.806494140625],[-2.670605468749983,36.74755859375],[-2.787548828124983,36.714746093749994],[-2.90185546875,36.7431640625],[-3.149169921875,36.75849609375],[-3.2591308593749773,36.755761718749994],[-3.4312499999999773,36.707910156249994],[-3.578808593749983,36.73984375],[-3.8277832031249943,36.7560546875],[-4.366845703124994,36.718115234375],[-4.434863281249989,36.700244140624996],[-4.502246093749989,36.629150390625],[-4.674121093749989,36.5064453125],[-4.935302734375,36.50205078125],[-5.171484374999977,36.423779296875],[-5.230517578124989,36.3736328125],[-5.329687499999977,36.235742187499994],[-5.360937499999977,36.134912109374994],[-5.381591796875,36.134082031249996],[-5.4072265625,36.15888671875],[-5.443603515625,36.1505859375],[-5.462499999999977,36.073779296874996],[-5.55126953125,36.038818359375],[-5.62548828125,36.025927734374996],[-5.808398437499989,36.088330078125],[-5.960693359375,36.18173828125],[-6.040673828124994,36.188427734375],[-6.170458984374989,36.333789062499996],[-6.226269531249983,36.42646484375],[-6.265917968749989,36.526513671874994],[-6.257714843749994,36.564843749999994],[-6.268945312499994,36.596728515624996],[-6.384130859374977,36.637011718749996],[-6.412255859374994,36.728857421875],[-6.328320312499983,36.84814453125],[-6.259423828124994,36.898974609374996],[-6.216796875,36.91357421875],[-6.320947265624994,36.908496093749996],[-6.396191406249983,36.831640625],[-6.492431640625,36.954638671874996],[-6.884619140624977,37.194238281249994],[-6.859375,37.249169921874994],[-6.86376953125,37.27890625],[-6.929492187499989,37.21494140625],[-6.974658203124989,37.1984375],[-7.174951171874994,37.208789062499996],[-7.493603515624983,37.168310546875],[-7.834130859374994,37.005712890625],[-7.939697265625,37.005419921874996],[-8.136767578124989,37.077050781249994],[-8.484326171874983,37.100048828125],[-8.59765625,37.121337890625],[-8.739111328124977,37.074609374999994],[-8.848437499999989,37.07568359375],[-8.935351562499989,37.016015624999994],[-8.997802734375,37.032275390624996],[-8.92626953125,37.166064453124996],[-8.814160156249983,37.430810546874994],[-8.818554687499983,37.592431640624994],[-8.791845703124977,37.732812499999994],[-8.822656249999994,37.871874999999996],[-8.878955078124989,37.95869140625],[-8.80224609375,38.183837890625],[-8.810937499999994,38.299755859375],[-8.881103515625,38.446679687499994],[-8.668310546874977,38.42431640625],[-8.733984374999977,38.482421875],[-8.798876953124989,38.5181640625],[-8.861621093749989,38.5099609375],[-8.914794921875,38.512109374999994],[-9.095996093749989,38.455224609374994],[-9.186718749999983,38.43818359375],[-9.213281249999994,38.448095703125],[-9.203369140625,38.538964843749994],[-9.250390624999994,38.65673828125],[-9.177832031249977,38.687792968749996],[-9.093310546874989,38.696679687499994],[-9.021484375,38.746874999999996],[-8.97705078125,38.8029296875],[-9.00048828125,38.90302734375],[-8.938085937499977,38.998095703124996],[-8.791601562499977,39.078173828124996],[-8.867480468749989,39.065966796874996],[-8.954296874999983,39.016064453125],[-9.091015624999983,38.83466796875],[-9.135791015624989,38.7427734375],[-9.252294921874977,38.712792968749994],[-9.356738281249989,38.697900390624994],[-9.410205078124989,38.70751953125],[-9.47412109375,38.730859374999994],[-9.479736328125,38.798779296875],[-9.474755859374994,38.852929687499994],[-9.431445312499989,38.96044921875],[-9.414355468749989,39.112109374999996],[-9.352832031249989,39.24814453125],[-9.357226562499989,39.28427734375],[-9.374755859375,39.338281249999994],[-9.319628906249989,39.39111328125],[-9.251416015624983,39.426025390625],[-9.148291015624977,39.542578125],[-9.004052734374994,39.820556640625],[-8.837841796874983,40.115673828125],[-8.851318359375,40.151806640625],[-8.886621093749994,40.179443359375],[-8.872656249999977,40.259082031249996],[-8.772412109374983,40.6056640625],[-8.731591796874994,40.650927734374996],[-8.684619140624989,40.7525390625],[-8.673974609374994,40.91650390625],[-8.655566406249989,41.0294921875],[-8.659814453124994,41.086279296875],[-8.674609374999989,41.1544921875],[-8.738378906249977,41.28466796875],[-8.8056640625,41.560009765625],[-8.810839843749989,41.651953125],[-8.755419921874989,41.698388671874994],[-8.846386718749983,41.70517578125],[-8.887597656249994,41.764599609375],[-8.878222656249989,41.832080078124996],[-8.777148437499989,41.941064453124994],[-8.852343749999989,41.926904296874994],[-8.878320312499994,41.946875],[-8.88720703125,42.105273437499996],[-8.7724609375,42.210595703124994],[-8.69091796875,42.274169921875],[-8.729199218749983,42.287011718749994],[-8.815820312499994,42.28525390625],[-8.809960937499994,42.33447265625],[-8.769384765624977,42.358154296875],[-8.730029296874989,42.41171875],[-8.776171874999989,42.434814453125],[-8.812109374999977,42.470068359375],[-8.809912109374977,42.562353515625],[-8.799902343749977,42.599902343749996],[-8.8115234375,42.64033203125],[-8.98779296875,42.58564453125],[-9.033105468749994,42.59384765625],[-9.035058593749994,42.662353515625],[-8.937207031249983,42.76669921875],[-8.927197265624983,42.798583984375],[-9.041601562499977,42.814013671874996],[-9.127197265625,42.865234375],[-9.179443359375,42.910986328125],[-9.235205078124977,42.976904296875],[-9.235644531249989,43.035791015624994],[-9.178076171874977,43.1740234375],[-9.095556640624977,43.214208984375],[-9.024511718749977,43.23896484375],[-8.873681640624994,43.334423828125],[-8.665624999999977,43.3166015625],[-8.537060546874983,43.337060546874994],[-8.421582031249983,43.38583984375],[-8.35546875,43.396826171875],[-8.248925781249994,43.439404296875],[-8.252294921874977,43.496923828125],[-8.288867187499989,43.539599609374996],[-8.256738281249994,43.579882812499996],[-8.137158203124983,43.629052734374994],[-8.004687499999989,43.694384765624996],[-7.852734374999983,43.706982421875],[-7.698144531249994,43.764550781249994],[-7.594580078124977,43.727343749999996],[-7.503613281249983,43.73994140625],[-7.399316406249994,43.69580078125],[-7.261962890625,43.594628906249994],[-7.060986328124983,43.553955078125],[-6.900683593749989,43.58564453125],[-6.617285156249977,43.5923828125],[-6.475683593749977,43.578906249999996],[-6.22412109375,43.603857421875],[-6.080126953124989,43.594921875],[-5.8466796875,43.645068359374996],[-5.665820312499989,43.582470703125],[-5.315722656249989,43.553173828125],[-5.105273437499989,43.501855468749994],[-4.523046874999977,43.41572265625],[-4.312792968749989,43.41474609375],[-4.015332031249983,43.4630859375],[-3.889355468749983,43.499414062499994],[-3.7740234374999773,43.477880859375],[-3.6046386718749943,43.519482421875],[-3.523632812499983,43.511035156249996],[-3.4178710937499943,43.451708984374996],[-3.045605468749983,43.37158203125],[-2.947705078124983,43.439697265625],[-2.8750488281249886,43.454443359375],[-2.6070800781249943,43.412744140624994],[-2.337109374999983,43.328027343749994],[-2.1966796874999943,43.321923828124994],[-1.9913085937499773,43.345068359375],[-1.8285156249999943,43.400830078125],[-1.6314453124999773,43.438037109374996],[-1.48486328125,43.563769531249996],[-1.3459960937499886,44.02021484375],[-1.2455078124999943,44.559863281249996],[-1.1708007812499943,44.66181640625],[-1.0769531249999886,44.689843749999994],[-1.1528808593749886,44.764013671875],[-1.200390624999983,44.726464843749994],[-1.2203124999999773,44.68662109375],[-1.2452148437499773,44.66669921875],[-1.1890624999999773,45.161474609375],[-1.1490722656249943,45.342626953125],[-1.081005859374983,45.532421875],[-0.9417480468749773,45.457080078124996],[-0.8263183593749943,45.380664062499996],[-0.7666503906249886,45.314355468749994],[-0.691113281249983,45.09345703125],[-0.633984374999983,45.047119140625],[-0.5484863281249943,45.0005859375],[-0.582275390625,45.0513671875],[-0.64111328125,45.090185546875],[-0.733105468749983,45.384619140625],[-0.790771484375,45.468017578125],[-0.8806640624999886,45.53818359375],[-1.1699707031249886,45.685937499999994],[-1.195996093749983,45.714453125],[-1.2099609375,45.770898437499994],[-1.1143554687499773,45.768505859375],[-1.03173828125,45.741064453125],[-1.04150390625,45.77265625],[-1.0660156249999773,45.8056640625],[-1.1043945312499943,45.925341796874996],[-1.1363769531249943,46.204833984375],[-1.132031249999983,46.252685546875],[-1.1462890624999886,46.311376953125],[-1.2388183593749886,46.324511718749996],[-1.3127929687499886,46.326904296875],[-1.3924804687499943,46.35009765625],[-1.7865234374999943,46.51484375],[-1.9214355468749886,46.684814453125],[-2.0593749999999886,46.810302734375],[-2.092480468749983,46.865039062499996],[-2.090283203124983,46.9205078125],[-2.0188964843749773,47.037646484374996],[-2.0819335937499943,47.111621093749996],[-2.1435546875,47.126318359375],[-2.1970703124999886,47.162939453125],[-2.1485839843749943,47.223925781249996],[-2.1083007812499943,47.262939453125],[-2.027587890625,47.273583984374994],[-1.9217285156249773,47.260644531249994],[-1.8212890625,47.225341796875],[-1.7425292968749773,47.215966796874994],[-1.9753906249999886,47.310693359374994],[-2.35302734375,47.278759765625],[-2.4344238281249773,47.290966796875],[-2.503124999999983,47.312060546874996],[-2.530029296875,47.381591796875],[-2.476318359375,47.412939453125],[-2.427685546874983,47.4708984375],[-2.4827148437499886,47.511621093749994],[-2.5540527343749773,47.52705078125],[-2.6659179687499943,47.526171874999996],[-2.7703124999999886,47.5138671875],[-2.7967773437499943,47.537255859374994],[-2.733105468749983,47.601806640625],[-2.7872070312499773,47.625537109374996],[-2.964062499999983,47.60107421875],[-3.064208984375,47.621337890625],[-3.1588378906249943,47.694677734375],[-3.2215820312499943,47.694140624999996],[-3.2646972656249886,47.685107421874996],[-3.32861328125,47.713330078125],[-3.3958984374999943,47.72041015625],[-3.4439453124999773,47.71103515625],[-3.5078125,47.753125],[-3.9009277343749886,47.837548828124994],[-4.070703124999994,47.8478515625],[-4.226416015624977,47.809619140624996],[-4.312109374999977,47.822900390624994],[-4.375097656249977,47.87744140625],[-4.427978515625,47.9689453125],[-4.678808593749977,48.039501953125],[-4.629199218749989,48.085791015625],[-4.512402343749983,48.096728515624996],[-4.377832031249994,48.128808593749994],[-4.329443359374977,48.169970703124996],[-4.434619140624989,48.21796875],[-4.51220703125,48.229736328125],[-4.544335937499994,48.246972656249994],[-4.5771484375,48.2900390625],[-4.530664062499994,48.309716796874994],[-4.497900390624977,48.299267578125],[-4.4033203125,48.29306640625],[-4.241406249999983,48.303662109375],[-4.3017578125,48.347070312499994],[-4.364404296874994,48.356738281249996],[-4.393164062499977,48.367626953125],[-4.524804687499994,48.372314453125],[-4.584716796875,48.35751953125],[-4.719384765624994,48.363134765625],[-4.74853515625,48.410009765625],[-4.762499999999989,48.450244140624996],[-4.720751953124989,48.539892578125],[-4.531201171874983,48.619970703125],[-4.058886718749989,48.70751953125],[-3.855664062499983,48.694726562499994],[-3.714794921874983,48.710498046874996],[-3.5459960937499773,48.765673828124996],[-3.4714843749999886,48.812939453125],[-3.2314453125,48.8408203125],[-3.0032226562499886,48.790673828124994],[-2.7928710937499943,48.60107421875],[-2.692333984374983,48.53681640625],[-2.4461914062499943,48.648291015625],[-2.0794433593749773,48.64501953125],[-2.0037109374999886,48.582080078124996],[-1.97314453125,48.635107421875],[-1.905712890624983,48.697119140625],[-1.8519531249999943,48.668847656249994],[-1.82470703125,48.630517578124994],[-1.4376464843749943,48.641406249999996],[-1.37646484375,48.652587890625],[-1.48046875,48.697607421875],[-1.5654785156249886,48.805517578125],[-1.5831054687499773,49.202392578125],[-1.6903320312499943,49.31318359375],[-1.813427734374983,49.490136718749994],[-1.870068359374983,49.595117187499994],[-1.8753906249999943,49.631396484374996],[-1.8564453125,49.6837890625],[-1.7051269531249886,49.680957031249996],[-1.5882324218749773,49.66767578125],[-1.36572265625,49.707275390625],[-1.2586425781249773,49.68017578125],[-1.2649414062499886,49.5982421875],[-1.2322753906249773,49.494873046875],[-1.1949707031249943,49.44482421875],[-1.1385253906249773,49.387890625],[-0.9591308593749943,49.3931640625],[-0.7655273437499943,49.359716796875],[-0.5208984374999943,49.354541015624996],[-0.16347656249999432,49.296777343749994],[-0.011181640624982947,49.330224609374994],[0.13613281250002274,49.401513671874994],[0.41689453125002274,49.448388671874994],[0.43925781250001705,49.473193359374996],[0.27763671875001705,49.463281249999994],[0.12939453125,49.508447265624994],[0.109375,49.557519531249994],[0.12656250000000568,49.6015625],[0.18671875000001137,49.703027343749994],[0.6162109375,49.862939453124994],[0.924121093750017,49.910205078124996],[1.2455078125000227,49.9982421875],[1.4072265625,50.088525390624994],[1.5140625000000227,50.205078125],[1.5484375000000057,50.230712890625],[1.5927734375,50.252197265625],[1.551562500000017,50.2939453125],[1.5794921875000227,50.7392578125],[1.6095703125000114,50.819482421874994],[1.6722656250000227,50.885009765625],[1.7676757812500057,50.935693359374994],[1.9125000000000227,50.990624999999994],[2.4457031250000227,51.06650390625],[2.9601562500000114,51.265429687499996],[3.2251953125000057,51.351611328124996],[3.42578125,51.393505859375],[3.5894531250000057,51.3994140625],[3.7165039062500114,51.369140625],[3.8833984375000057,51.3544921875],[4.011035156250017,51.395947265625],[4.111523437500011,51.360644531249996],[4.226171875000006,51.386474609375],[4.138867187500011,51.401513671874994],[4.006542968750011,51.443212890625],[3.8218750000000057,51.409375],[3.6935546875000114,51.44990234375],[3.5869140625,51.453906249999996],[3.5205078125,51.486181640625],[3.4489257812500114,51.540771484375],[3.4996093750000057,51.57666015625],[3.548632812500017,51.589111328125],[3.743945312500017,51.596044921875],[3.886035156250017,51.57421875],[4.141308593750011,51.45576171875],[4.205761718750011,51.456689453124994],[4.274121093750011,51.471630859375],[4.239355468750006,51.50390625],[4.080468750000023,51.551123046875],[4.004785156250023,51.595849609374994],[4.1826171875,51.610302734375],[4.158007812500017,51.633447265625],[4.134570312500017,51.672900390624996],[3.9468750000000057,51.810546875],[3.9789062500000227,51.847802734375],[4.026074218750011,51.927734375],[4.084863281250023,51.994091796875],[4.131738281250023,52.0119140625],[4.208789062500017,52.058984375],[4.376269531250017,52.196826171874996],[4.482812500000023,52.3091796875],[4.562109375000006,52.442578125],[4.678320312500006,52.809765625],[4.712695312500017,52.872119140624996],[4.768750000000011,52.94130859375],[4.839062500000011,52.928271484374996],[4.887988281250017,52.908349609375],[5.061230468750011,52.96064453125],[5.25,53.046933856905184],[5.25,43.349324504765875],[5.120410156250017,43.348974609375],[5.073144531250023,43.366601562499994],[5.060839843750017,43.406298828124996],[5.059765625000011,43.44453125],[4.975976562500023,43.426953125]]],[[[-1.2850585937499943,46.002685546875],[-1.1783203124999773,45.904052734375],[-1.213574218749983,45.8166015625],[-1.2802734375,45.897119140624994],[-1.3687011718749886,45.967675781249994],[-1.388867187499983,46.032958984375],[-1.388671875,46.050390625],[-1.2850585937499943,46.002685546875]]],[[[-2.2205078124999886,49.266357421875],[-2.082226562499983,49.25537109375],[-2.0186523437499773,49.231249999999996],[-2.0099121093749943,49.180810546874994],[-2.0537597656249886,49.169824218749994],[-2.091015624999983,49.187402343749994],[-2.1656738281249943,49.187402343749994],[-2.23583984375,49.1763671875],[-2.2205078124999886,49.266357421875]]],[[[-2.5123046874999773,49.494531249999994],[-2.54736328125,49.4287109375],[-2.6390136718749773,49.450927734375],[-2.6461425781249943,49.468212890625],[-2.542187499999983,49.506591796875],[-2.5208984374999943,49.506298828125],[-2.5123046874999773,49.494531249999994]]],[[[-1.515332031249983,50.669775390625],[-1.563427734374983,50.66611328125],[-1.5156738281249886,50.7033203125],[-1.3858398437499773,50.733544921874994],[-1.3127929687499886,50.773486328124996],[-1.144238281249983,50.734716796875],[-1.0655761718749943,50.690234374999996],[-1.149365234374983,50.655712890625],[-1.1758300781249886,50.615234375],[-1.1960937499999886,50.59921875],[-1.25146484375,50.588818359375],[-1.3062988281249943,50.588525390624994],[-1.515332031249983,50.669775390625]]],[[[3.7318359375000227,51.67822265625],[3.699023437500017,51.709912109375],[3.698535156250017,51.7296875],[3.7890625,51.746435546875],[3.9491210937500227,51.739453125],[4.046777343750023,51.684912109375],[4.067578125000011,51.66748046875],[4.075097656250023,51.648779296875],[3.950976562500017,51.62705078125],[3.8190429687500114,51.693994140625],[3.7318359375000227,51.67822265625]]],[[[4.886132812500023,53.070703125],[4.787109375,52.999804687499996],[4.726757812500011,53.01962890625],[4.709179687500011,53.03603515625],[4.739843750000006,53.09130859375],[4.886425781250011,53.18330078125],[4.886132812500023,53.070703125]]],[[[-3.480419921874983,56.0328125],[-3.6951171874999886,56.063330078125],[-3.7890625,56.09521484375],[-3.7041503906249886,56.0431640625],[-3.6078124999999943,56.016015625],[-3.0487304687499943,55.951953124999996],[-3.015087890624983,55.95859375],[-2.836865234374983,56.02626953125],[-2.599316406249983,56.027294921875],[-2.1470703124999773,55.902978515625],[-1.830273437499983,55.671728515625],[-1.728759765625,55.6185546875],[-1.6553710937499773,55.570361328124996],[-1.6101562499999886,55.498095703124996],[-1.5225585937499773,55.259521484375],[-1.4226562499999886,55.026416015624996],[-1.291748046875,54.773876953125],[-1.232421875,54.7037109375],[-1.1543945312499773,54.6544921875],[-0.7593261718749886,54.54140625],[-0.67138671875,54.50390625],[-0.5181152343749886,54.3951171875],[-0.370361328125,54.27919921875],[-0.23286132812498295,54.19013671875],[-0.08437499999999432,54.11806640625],[-0.15629882812498863,54.080615234374996],[-0.20556640625,54.021728515625],[-0.16874999999998863,53.941650390625],[-0.10825195312497726,53.865185546875],[0.010546875000017053,53.742822265625],[0.11533203125000568,53.60927734375],[0.07670898437501705,53.629443359374996],[0.03608398437501137,53.64052734375],[-0.019433593749994316,53.63720703125],[-0.07373046875,53.64365234375],[-0.173828125,53.68544921875],[-0.27001953125,53.736767578125],[-0.46137695312498295,53.716162109375],[-0.5676757812499886,53.725390624999996],[-0.659912109375,53.7240234375],[-0.48505859374998295,53.694384765624996],[-0.293701171875,53.692333984375],[0.12832031250002274,53.46826171875],[0.27099609375,53.335498046874996],[0.35576171875001705,53.159960937499996],[0.29804687500001137,53.081103515624996],[0.20820312500001137,53.030029296875],[0.12441406250002274,52.97158203125],[0.0458984375,52.905615234375],[0.27978515625,52.80869140625],[0.3301757812500057,52.81162109375],[0.3819335937500057,52.8251953125],[0.431640625,52.858154296875],[0.5155273437500227,52.93837890625],[0.5587890625000114,52.966943359375],[0.7044921875000227,52.97724609375],[0.8267578125000057,52.97109375],[0.948535156250017,52.953369140625],[1.0555664062500227,52.958984375],[1.271289062500017,52.924560546875],[1.382128906250017,52.893505859375],[1.65673828125,52.753710937499996],[1.716113281250017,52.67724609375],[1.7433593750000114,52.578515625],[1.74658203125,52.468994140625],[1.7003906250000114,52.368896484375],[1.6473632812500227,52.278515625],[1.6146484375000227,52.16181640625],[1.5914062500000057,52.119775390625],[1.5589843750000227,52.086865234375],[1.4134765625000227,51.994775390625],[1.3167968750000227,51.95693359375],[1.2759765625000057,51.97353515625],[1.232421875,51.971240234374996],[1.227832031250017,51.94912109375],[1.2738281250000227,51.902099609375],[1.2744140625,51.845361328125],[1.1884765625,51.803369140625],[1.1011718750000057,51.785449218749996],[0.955078125,51.8078125],[0.752246093750017,51.72958984375],[0.8980468750000057,51.689404296875],[0.9274414062500114,51.646630859375],[0.890917968750017,51.571435546874994],[0.7992187500000227,51.537890624999996],[0.697558593750017,51.523046875],[0.5934570312500114,51.519482421875],[0.5072265625000227,51.50107421875],[0.42451171875001137,51.465624999999996],[0.5283203125,51.48447265625],[0.6002929687500114,51.46796875],[0.6455078125,51.404687499999994],[0.6865234375,51.386572265625],[0.8893554687500114,51.359521484374994],[1.014941406250017,51.359716796875],[1.257128906250017,51.37509765625],[1.3734375000000227,51.37470703125],[1.4149414062500227,51.36328125],[1.4156250000000057,51.310839843749996],[1.3975585937500057,51.182031249999994],[1.365527343750017,51.15546875],[1.04443359375,51.047265624999994],[0.9786132812500057,50.9716796875],[0.9601562500000114,50.92587890625],[0.7723632812500227,50.933984374999994],[0.684375000000017,50.885546874999996],[0.5323242187500057,50.853417968749994],[0.41474609375001137,50.819189453125],[0.29970703125002274,50.7759765625],[0.205078125,50.763037109375],[-0.20390624999998863,50.814355468749994],[-0.45078124999997726,50.81015625],[-0.7852539062499773,50.765429687499996],[-0.8713867187499886,50.772802734375],[-1.0005859374999773,50.815625],[-1.1328613281249886,50.844580078125],[-1.2850585937499943,50.857324218749994],[-1.416455078124983,50.896874999999994],[-1.33447265625,50.82080078125],[-1.5167480468749943,50.747460937499994],[-1.600830078125,50.732861328125],[-1.6878906249999943,50.735156249999996],[-1.8660156249999886,50.715234374999994],[-2.0310546874999886,50.725390624999996],[-2.0062499999999943,50.673242187499994],[-1.9620605468749943,50.627783203125],[-1.9979003906249773,50.6080078125],[-2.035839843749983,50.603076171874996],[-2.3501464843749886,50.63740234375],[-2.3946777343749943,50.630908203124996],[-2.4334472656249773,50.59921875],[-2.5477539062499943,50.61630859375],[-2.6588378906249943,50.669726562499996],[-2.7769531249999773,50.70556640625],[-2.90087890625,50.722412109375],[-2.9994140624999943,50.716601562499996],[-3.4045898437499886,50.632421875],[-3.4854492187499773,50.54794921875],[-3.52587890625,50.428173828125],[-3.5843749999999943,50.321826171874996],[-3.6797851562499773,50.23994140625],[-3.7933593749999943,50.229248046875],[-3.9001953124999886,50.285937499999996],[-4.103417968749994,50.348535156249994],[-4.172558593749983,50.3908203125],[-4.194580078125,50.393310546875],[-4.21728515625,50.378173828125],[-4.296972656249977,50.35908203125],[-4.379492187499977,50.358203124999996],[-4.506689453124977,50.341357421874996],[-4.727978515624983,50.290478515625],[-4.8173828125,50.25595703125],[-5.009521484375,50.1607421875],[-5.048632812499989,50.134375],[-5.118505859374977,50.038330078125],[-5.225244140624994,50.021386718749994],[-5.322851562499977,50.082958984375],[-5.433984374999994,50.104443359375],[-5.551220703124983,50.083398437499994],[-5.622119140624989,50.050683593749994],[-5.655175781249994,50.07724609375],[-5.65625,50.131884765624996],[-5.570654296874977,50.19697265625],[-5.34228515625,50.246142578124996],[-5.141796874999983,50.37373046875],[-5.04345703125,50.451513671875],[-5.004443359374989,50.495263671874994],[-4.956396484374977,50.52314453125],[-4.8935546875,50.53369140625],[-4.861279296874983,50.58203125],[-4.582910156249994,50.7763671875],[-4.559960937499994,50.820947265624994],[-4.546093749999983,50.900683593749996],[-4.523095703124994,50.977441406249994],[-4.296484374999977,51.027148437499996],[-4.188183593749983,51.188525390624996],[-4.158398437499983,51.201318359374994],[-3.8423339843749886,51.230908203125],[-3.60791015625,51.228564453124996],[-3.3750976562499773,51.19697265625],[-3.2557617187499943,51.194140624999996],[-3.135986328125,51.205029296875],[-3.0420410156249886,51.248583984374996],[-2.8812499999999943,51.405664062499994],[-2.7908203124999886,51.4748046875],[-2.687207031249983,51.537255859374994],[-2.590283203124983,51.60859375],[-2.433056640624983,51.74072265625],[-2.5393554687499886,51.69521484375],[-2.742138671874983,51.581103515624996],[-2.978515625,51.538867187499996],[-3.0803710937499886,51.49580078125],[-3.2587890625,51.398486328124996],[-3.2931152343749943,51.390429687499996],[-3.5623535156249773,51.413818359375],[-3.7626953125,51.539941406249994],[-3.8907714843749943,51.591650390625],[-3.9436523437499886,51.597509765625],[-3.9983398437499886,51.58212890625],[-4.115283203124989,51.56640625],[-4.234570312499983,51.569091796875],[-4.173681640624977,51.62734375],[-4.091015624999983,51.659912109375],[-4.276171874999989,51.68251953125],[-4.32763671875,51.700244140624996],[-4.386279296874989,51.741064453125],[-4.531494140625,51.748046875],[-4.600781249999983,51.737646484375],[-4.717626953124977,51.68369140625],[-4.902294921874983,51.626269531249996],[-5.124755859375,51.705859374999996],[-5.168359374999994,51.74072265625],[-5.167236328125,51.808056640625],[-5.200585937499994,51.861376953124996],[-5.262304687499977,51.880175781249996],[-5.183349609375,51.949658203125],[-5.088085937499983,51.995898437499996],[-4.878515624999977,52.041845703125],[-4.561132812499977,52.15087890625],[-4.383154296874977,52.197314453124996],[-4.217724609374983,52.27744140625],[-4.149365234374983,52.32626953125],[-4.099755859374994,52.393115234374996],[-4.050537109375,52.475146484374996],[-3.9803222656249773,52.541748046875],[-4.048437499999977,52.5576171875],[-4.078906249999989,52.607861328125],[-4.070703124999994,52.658837890625],[-4.039257812499983,52.704052734375],[-4.067431640624989,52.7607421875],[-4.117529296874977,52.82001953125],[-4.11474609375,52.866162109375],[-4.101464843749994,52.915478515625],[-4.229150390624994,52.912841796875],[-4.3564453125,52.897412109375],[-4.471826171874994,52.862451171875],[-4.583691406249983,52.81494140625],[-4.683056640624983,52.80615234375],[-4.681445312499989,52.844140625],[-4.638330078124994,52.89111328125],[-4.525683593749989,52.958203125],[-4.405078124999989,53.013818359375],[-4.362207031249994,53.0560546875],[-4.328417968749989,53.105126953125],[-4.2685546875,53.14453125],[-4.111035156249983,53.2189453125],[-3.809277343749983,53.302685546875],[-3.7642089843749886,53.3076171875],[-3.6458984374999943,53.297900390624996],[-3.5295898437499886,53.310546875],[-3.427734375,53.340673828125],[-3.326171875,53.34716796875],[-3.0975585937499943,53.260302734374996],[-3.1655761718749886,53.394677734375],[-3.0647460937499886,53.42685546875],[-2.9185546874999773,53.30537109375],[-2.8641601562499943,53.292578125],[-2.74951171875,53.310205078125],[-2.7937499999999886,53.330712890625],[-2.845410156249983,53.33193359375],[-2.9130859375,53.350244140625],[-2.969970703125,53.389208984374996],[-3.0645996093749943,53.512841796875],[-3.0594726562499943,53.586230468749996],[-2.9957031249999773,53.662548828125],[-2.9250976562499886,53.732763671875],[-2.984326171874983,53.746728515625],[-3.0317871093749886,53.773583984375],[-3.045361328124983,53.84384765625],[-3.0267578124999943,53.905908203125],[-2.899853515624983,53.960693359375],[-2.8624023437499773,54.04384765625],[-2.8464843749999886,54.135302734374996],[-2.8675781249999943,54.17724609375],[-2.9935058593749773,54.1705078125],[-3.0547363281249886,54.15341796875],[-3.1096679687499886,54.126318359375],[-3.165966796874983,54.1279296875],[-3.321533203125,54.2291015625],[-3.4102539062499773,54.305615234375],[-3.5693847656249886,54.467578124999996],[-3.592041015625,54.56435546875],[-3.464599609375,54.773095703125],[-3.2679199218749773,54.906591796875],[-3.0362304687499773,54.953076171875],[-3.0810546875,54.961962890624996],[-3.43408203125,54.96376953125],[-3.5504394531249943,54.947412109375],[-3.6583007812499773,54.892871093749996],[-3.71923828125,54.876123046875],[-3.7832519531249886,54.869921874999996],[-3.8416015624999886,54.8427734375],[-3.8985839843749943,54.805078125],[-3.9579101562499943,54.78095703125],[-4.075781249999977,54.78720703125],[-4.132958984374994,54.779248046875],[-4.174023437499983,54.801074218749996],[-4.208398437499994,54.837158203125],[-4.25341796875,54.84677734375],[-4.303662109374983,54.835693359375],[-4.409912109375,54.787060546875],[-4.517480468749994,54.758349609374996],[-4.647558593749977,54.789013671875],[-4.818066406249983,54.846142578125],[-4.851708984374994,54.82529296875],[-4.889501953124977,54.772265624999996],[-4.911230468749977,54.689453125],[-5.032324218749977,54.761376953125],[-5.135498046875,54.85751953125],[-5.170117187499983,54.917919921875],[-5.172705078124977,54.985888671874996],[-5.11669921875,55.012255859374996],[-5.055859374999983,54.988134765625],[-4.965185546874977,55.149462890624996],[-4.784814453124994,55.359423828124996],[-4.721142578124983,55.42099609375],[-4.6767578125,55.501318359375],[-4.684374999999989,55.55390625],[-4.724169921874989,55.598291015625],[-4.891845703125,55.69912109375],[-4.8896484375,55.781201171875],[-4.871679687499977,55.87392578125],[-4.826074218749994,55.929541015625],[-4.806835937499983,55.94013671875],[-4.584082031249977,55.938671875],[-4.670947265624989,55.9673828125],[-4.844091796874977,56.051171875],[-4.841015624999983,56.080859374999996],[-4.80029296875,56.158349609375],[-4.819140624999989,56.15048828125],[-4.856249999999989,56.114697265625],[-4.927099609374977,56.028076171875],[-4.970361328124994,56.007861328124996],[-5.092822265624989,55.9873046875],[-5.114990234375,55.944628906249996],[-5.134667968749994,55.93349609375],[-5.195849609374989,55.928662109375],[-5.214599609375,55.8888671875],[-5.228222656249983,55.886328125],[-5.24560546875,55.929248046874996],[-5.247314453125,56.000390625],[-5.222949218749989,56.0658203125],[-5.176416015624994,56.116992187499996],[-4.996972656249994,56.233349609375],[-5.084326171874977,56.1974609375],[-5.282324218749977,56.08994140625],[-5.410449218749989,55.995361328125],[-5.418896484374983,55.975244140625],[-5.418310546874977,55.95205078125],[-5.372900390624977,55.827685546874996],[-5.385839843749977,55.7701171875],[-5.556445312499989,55.389599609375],[-5.588769531249994,55.351416015625],[-5.618457031249989,55.3314453125],[-5.646533203124989,55.32685546875],[-5.730664062499983,55.334130859375],[-5.768212890624994,55.362646484375],[-5.767871093749989,55.394970703125],[-5.681347656249983,55.623974609375],[-5.650634765625,55.674121093749996],[-5.605029296874989,55.720751953124996],[-5.504492187499977,55.802392578125],[-5.506933593749977,55.80771484375],[-5.573876953124994,55.79169921875],[-5.602392578124977,55.79697265625],[-5.622851562499989,55.813134765625],[-5.609570312499983,56.0552734375],[-5.555273437499977,56.1349609375],[-5.535106454777696,56.25],[-2.680488281249984,56.25],[-2.767578125,56.2021484375],[-2.9797851562499886,56.194091796875],[-3.17822265625,56.080126953124996],[-3.267773437499983,56.045068359375],[-3.362255859374983,56.027636718749996],[-3.480419921874983,56.0328125]]],[[[4.907910156250011,53.246240234375],[5.027050781250011,53.310205078125],[5.108593750000011,53.3080078125],[4.923730468750023,53.2345703125],[4.907910156250011,53.246240234375]]],[[[-4.373046875,53.1341796875],[-4.418847656249994,53.178027343749996],[-4.471972656249989,53.1763671875],[-4.55322265625,53.26044921875],[-4.56787109375,53.386474609375],[-4.461718749999989,53.419287109375],[-4.315087890624994,53.417236328125],[-4.19677734375,53.321435546875],[-4.154882812499977,53.30283203125],[-4.049365234374989,53.30576171875],[-4.084277343749989,53.264306640625],[-4.200390624999983,53.218066406249996],[-4.278613281249989,53.172412109374996],[-4.373046875,53.1341796875]]],[[[5.190234375000017,53.391796875],[5.25,53.40233306420972],[5.25,53.37926821278826],[5.232617187500011,53.377783203125],[5.190234375000017,53.391796875]]]]}}]}